[{"OBJECT_NAME":"STARLINK-36516","OBJECT_ID":"2026-008L","EPOCH":"2026-03-09T10:08:17.691936","MEAN_MOTION":15.27594547,"ECCENTRICITY":0.00020063,"INCLINATION":42.9992,"RA_OF_ASC_NODE":206.5347,"ARG_OF_PERICENTER":299.4788,"MEAN_ANOMALY":60.5863,"EPHEMERIS_TYPE":0,"CLASSIFICATION_TYPE":"U","NORAD_CAT_ID":67455,"ELEMENT_SET_NO":999,"REV_AT_EPOCH":953,"BSTAR":0.00092263854,"MEAN_MOTION_DOT":0.00025226,"MEAN_MOTION_DDOT":0},{"OBJECT_NAME":"PEGASUS R\/B","OBJECT_ID":"2007-015B","EPOCH":"2026-03-09T10:58:33.801024","MEAN_MOTION":15.26741121,"ECCENTRICITY":0.00105976,"INCLINATION":97.9168,"RA_OF_ASC_NODE":31.3919,"ARG_OF_PERICENTER":317.6341,"MEAN_ANOMALY":42.4077,"EPHEMERIS_TYPE":0,"CLASSIFICATION_TYPE":"U","NORAD_CAT_ID":31305,"ELEMENT_SET_NO":999,"REV_AT_EPOCH":3383,"BSTAR":0.00044093522,"MEAN_MOTION_DOT":0.00011537,"MEAN_MOTION_DDOT":0}]
